GLOBALSTAR M057         
1 25943U 99058A   24195.76979834 -.00000060  00000+0  29655-3 0  9994
2 25943  51.9957 228.6037 0001993  39.6213 320.4781 12.24789487125460
GLOBALSTAR M059         
1 25944U 99058B   24196.01140654 -.00000001  00000+0  10568-2 0  9991
2 25944  52.0031  42.0351 0001103  47.3229 120.0685 11.99965469122190
GLOBALSTAR M056         
1 25945U 99058C   24195.91500047 -.00000133  00000+0 -53118-3 0  9992
2 25945  51.9977  52.9411 0000412 143.8325 229.8770 12.04774435121859
GLOBALSTAR M031         
1 25946U 99058D   24196.11307671  .00000032  00000+0  12454-2 0  9997
2 25946  51.9983 324.9658 0001544 181.1257 350.1135 12.16011813123658
GLOBALSTAR M039         
1 25961U 99062A   24196.14101989 -.00000048  00000+0  31010-3 0  9994
2 25961  51.9818 218.3157 0002624 315.4945  44.5711 12.62296965137550
GLOBALSTAR M034         
1 25962U 99062B   24196.33194147 -.00000050  00000+0  49518-3 0  9999
2 25962  51.9842 169.6026 0013642 122.9999  25.6885 11.79428967 98513
GLOBALSTAR M029         
1 25963U 99062C   24196.21192756 -.00000056  00000+0  37828-3 0  9998
2 25963  51.9810 289.8219 0003060 167.4217 206.2316 11.99880254128601
GLOBALSTAR M061         
1 25964U 99062D   24196.16944610 -.00000046  00000+0  56981-3 0  9997
2 25964  51.9817 349.5806 0006567  55.7115 115.2412 11.76762569 81670
